{
  "type": "FeatureCollection",
  "features": [
    {
      "type": "Feature",
      "properties": {
        "norad_id": 66529,
        "name": "STARLINK-35933",
        "group": "last-30-days",
        "lat": 3.3128449596753438,
        "lon": 27.83840995003971,
        "alt_km": 443.6624669091225,
        "timestamp": "2025-12-17T21:39:44.490114+00:00",
        "meta_object_name": "STARLINK-35933",
        "meta_object_id": "2025-265P",
        "meta_epoch": "2025-12-17T12:18:21.273408",
        "meta_mean_motion": 15.406613,
        "meta_eccentricity": 0.0001239,
        "meta_inclination": 43.0016,
        "meta_ra_of_asc_node": 26.5242,
        "meta_arg_of_pericenter": 252.9993,
        "meta_mean_anomaly": 107.0728,
        "meta_ephemeris_type": 0,
        "meta_classification_type": "U",
        "meta_norad_cat_id": 66529,
        "meta_element_set_no": 999,
        "meta_rev_at_epoch": 449,
        "meta_bstar": 0.0010773697,
        "meta_mean_motion_dot": 0.00044908,
        "meta_mean_motion_ddot": 0,
        "tle_line1": "1 66529U 25265P   25351.51274622  .00044908  00000+0  10774-2 0  9998",
        "tle_line2": "2 66529  43.0016  26.5242 0001239 252.9993 107.0728 15.40661300  4497"
      },
      "geometry": {
        "type": "Point",
        "coordinates": [
          27.83840995003971,
          3.3128449596753438
        ]
      }
    },
    {
      "type": "Feature",
      "properties": {
        "norad_id": 66530,
        "name": "STARLINK-35961",
        "group": "last-30-days",
        "lat": 19.847155611818895,
        "lon": 47.00705782197634,
        "alt_km": 440.87928082659255,
        "timestamp": "2025-12-17T21:39:44.490124+00:00",
        "meta_object_name": "STARLINK-35961",
        "meta_object_id": "2025-265Q",
        "meta_epoch": "2025-12-17T12:11:53.028960",
        "meta_mean_motion": 15.40685219,
        "meta_eccentricity": 7.762e-05,
        "meta_inclination": 43.0003,
        "meta_ra_of_asc_node": 26.4907,
        "meta_arg_of_pericenter": 291.5722,
        "meta_mean_anomaly": 68.5051,
        "meta_ephemeris_type": 0,
        "meta_classification_type": "U",
        "meta_norad_cat_id": 66530,
        "meta_element_set_no": 999,
        "meta_rev_at_epoch": 449,
        "meta_bstar": 0.0012642944,
        "meta_mean_motion_dot": 0.00052849,
        "meta_mean_motion_ddot": 0,
        "tle_line1": "1 66530U 25265Q   25351.50825265  .00052849  00000+0  12643-2 0  9994",
        "tle_line2": "2 66530  43.0003  26.4907 0000776 291.5722  68.5051 15.40685219  4491"
      },
      "geometry": {
        "type": "Point",
        "coordinates": [
          47.00705782197634,
          19.847155611818895
        ]
      }
    },
    {
      "type": "Feature",
      "properties": {
        "norad_id": 66531,
        "name": "STARLINK-35960",
        "group": "last-30-days",
        "lat": 33.826609119591666,
        "lon": 70.13801982510346,
        "alt_km": 439.3721412718778,
        "timestamp": "2025-12-17T21:39:44.490135+00:00",
        "meta_object_name": "STARLINK-35960",
        "meta_object_id": "2025-265R",
        "meta_epoch": "2025-12-17T14:00:03.000384",
        "meta_mean_motion": 15.40653003,
        "meta_eccentricity": 0.00012484,
        "meta_inclination": 43.001,
        "meta_ra_of_asc_node": 25.9982,
        "meta_arg_of_pericenter": 260.8308,
        "meta_mean_anomaly": 181.2508,
        "meta_ephemeris_type": 0,
        "meta_classification_type": "U",
        "meta_norad_cat_id": 66531,
        "meta_element_set_no": 999,
        "meta_rev_at_epoch": 577,
        "meta_bstar": 0.0020853403,
        "meta_mean_motion_dot": 0.00087676,
        "meta_mean_motion_ddot": 0,
        "tle_line1": "1 66531U 25265R   25351.58336806  .00087676  00000+0  20853-2 0  9999",
        "tle_line2": "2 66531  43.0010  25.9982 0001248 260.8308 181.2508 15.40653003  5779"
      },
      "geometry": {
        "type": "Point",
        "coordinates": [
          70.13801982510346,
          33.826609119591666
        ]
      }
    },
    {
      "type": "Feature",
      "properties": {
        "norad_id": 66532,
        "name": "STARLINK-35914",
        "group": "last-30-days",
        "lat": 42.12593432986563,
        "lon": 100.14627233636106,
        "alt_km": 438.30370602762105,
        "timestamp": "2025-12-17T21:39:44.490145+00:00",
        "meta_object_name": "STARLINK-35914",
        "meta_object_id": "2025-265S",
        "meta_epoch": "2025-12-17T14:00:03.000384",
        "meta_mean_motion": 15.40660139,
        "meta_eccentricity": 0.00015619,
        "meta_inclination": 43.0009,
        "meta_ra_of_asc_node": 25.938,
        "meta_arg_of_pericenter": 268.9219,
        "meta_mean_anomaly": 198.0743,
        "meta_ephemeris_type": 0,
        "meta_classification_type": "U",
        "meta_norad_cat_id": 66532,
        "meta_element_set_no": 999,
        "meta_rev_at_epoch": 577,
        "meta_bstar": 0.0025178977,
        "meta_mean_motion_dot": 0.0010621,
        "meta_mean_motion_ddot": 0,
        "tle_line1": "1 66532U 25265S   25351.58336806  .00106210  00000+0  25179-2 0  9992",
        "tle_line2": "2 66532  43.0009  25.9380 0001561 268.9219 198.0743 15.40660139  5773"
      },
      "geometry": {
        "type": "Point",
        "coordinates": [
          100.14627233636106,
          42.12593432986563
        ]
      }
    },
    {
      "type": "Feature",
      "properties": {
        "norad_id": 66533,
        "name": "STARLINK-35707",
        "group": "last-30-days",
        "lat": 37.398149663042894,
        "lon": 148.88351240528883,
        "alt_km": 438.8816873267988,
        "timestamp": "2025-12-17T21:39:44.490154+00:00",
        "meta_object_name": "STARLINK-35707",
        "meta_object_id": "2025-265T",
        "meta_epoch": "2025-12-17T14:00:03.000384",
        "meta_mean_motion": 15.40650979,
        "meta_eccentricity": 0.00012867,
        "meta_inclination": 43.001,
        "meta_ra_of_asc_node": 25.8469,
        "meta_arg_of_pericenter": 274.2627,
        "meta_mean_anomaly": 230.028,
        "meta_ephemeris_type": 0,
        "meta_classification_type": "U",
        "meta_norad_cat_id": 66533,
        "meta_element_set_no": 999,
        "meta_rev_at_epoch": 577,
        "meta_bstar": 0.0020588737,
        "meta_mean_motion_dot": 0.0008654,
        "meta_mean_motion_ddot": 0,
        "tle_line1": "1 66533U 25265T   25351.58336806  .00086540  00000+0  20589-2 0  9996",
        "tle_line2": "2 66533  43.0010  25.8469 0001286 274.2627 230.0280 15.40650979  5774"
      },
      "geometry": {
        "type": "Point",
        "coordinates": [
          148.88351240528883,
          37.398149663042894
        ]
      }
    },
    {
      "type": "Feature",
      "properties": {
        "norad_id": 66534,
        "name": "STARLINK-35976",
        "group": "last-30-days",
        "lat": 8.938315902416349,
        "lon": -165.83099150558257,
        "alt_km": 442.9984926547586,
        "timestamp": "2025-12-17T21:39:44.490164+00:00",
        "meta_object_name": "STARLINK-35976",
        "meta_object_id": "2025-265U",
        "meta_epoch": "2025-12-17T14:00:03.000384",
        "meta_mean_motion": 15.40651816,
        "meta_eccentricity": 0.00012192,
        "meta_inclination": 43.0004,
        "meta_ra_of_asc_node": 25.7259,
        "meta_arg_of_pericenter": 287.103,
        "meta_mean_anomaly": 266.9567,
        "meta_ephemeris_type": 0,
        "meta_classification_type": "U",
        "meta_norad_cat_id": 66534,
        "meta_element_set_no": 999,
        "meta_rev_at_epoch": 577,
        "meta_bstar": 0.0020322995,
        "meta_mean_motion_dot": 0.00085409,
        "meta_mean_motion_ddot": 0,
        "tle_line1": "1 66534U 25265U   25351.58336806  .00085409  00000+0  20323-2 0  9996",
        "tle_line2": "2 66534  43.0004  25.7259 0001219 287.1030 266.9567 15.40651816  5778"
      },
      "geometry": {
        "type": "Point",
        "coordinates": [
          -165.83099150558257,
          8.938315902416349
        ]
      }
    },
    {
      "type": "Feature",
      "properties": {
        "norad_id": 66535,
        "name": "STARLINK-35514",
        "group": "last-30-days",
        "lat": 0.514473629488406,
        "lon": -156.69558648923922,
        "alt_km": 443.8664363430116,
        "timestamp": "2025-12-17T21:39:44.490174+00:00",
        "meta_object_name": "STARLINK-35514",
        "meta_object_id": "2025-265V",
        "meta_epoch": "2025-12-17T14:00:03.000384",
        "meta_mean_motion": 15.40610828,
        "meta_eccentricity": 0.00017454,
        "meta_inclination": 43.0003,
        "meta_ra_of_asc_node": 25.6964,
        "meta_arg_of_pericenter": 270.1224,
        "meta_mean_anomaly": 296.3992,
        "meta_ephemeris_type": 0,
        "meta_classification_type": "U",
        "meta_norad_cat_id": 66535,
        "meta_element_set_no": 999,
        "meta_rev_at_epoch": 577,
        "meta_bstar": 0.00260977,
        "meta_mean_motion_dot": 0.00109972,
        "meta_mean_motion_ddot": 0,
        "tle_line1": "1 66535U 25265V   25351.58336806  .00109972  00000+0  26098-2 0  9994",
        "tle_line2": "2 66535  43.0003  25.6964 0001745 270.1224 296.3992 15.40610828  5778"
      },
      "geometry": {
        "type": "Point",
        "coordinates": [
          -156.69558648923922,
          0.514473629488406
        ]
      }
    }
  ]
}